SAUDISAT 1C (SO-50)     
1 27607U 02058C   26158.71470936  .00001255  00000+0  16490-3 0  9991
2 27607  64.5503 158.2927 0075448 264.2145  95.0356 14.83027325263052
SAUDISAT 2              
1 28371U 04025F   26158.54983623  .00000345  00000+0  88208-4 0  9995
2 28371  98.5506 158.2828 0024034 328.9640  31.0136 14.56678534164346
SAUDISAT 3              
1 31118U 07012B   26158.73836675  .00000345  00000+0  63928-4 0  9994
2 31118  98.1452 109.1330 0013283 256.6027 103.3699 14.71420430 26350
PISAT                   
1 41784U 16059B   26158.74400825  .00001117  00000+0  19762-3 0  9994
2 41784  97.8178 159.6027 0027737 234.0014 125.8621 14.68968105518351
FLYING LAPTOP           
1 42831U 17042G   26158.85325938  .00004192  00000+0  33092-3 0  9992
2 42831  97.4657 314.7486 0019102 152.1285 208.0967 15.01086338485057
SALSAT                  
1 46495U 20068K   26158.72612110  .00008408  00000+0  29512-3 0  9997
2 46495  97.8853 161.2159 0008931 346.1637  13.9356 15.29663376313918
